[{"OBJECT_NAME":"RUNNER-1 (TYVAK-1005)","OBJECT_ID":"2023-084X","EPOCH":"2026-03-09T23:04:09.569568","MEAN_MOTION":15.35579757,"ECCENTRICITY":0.0007303,"INCLINATION":97.6067,"RA_OF_ASC_NODE":207.5453,"ARG_OF_PERICENTER":311.3836,"MEAN_ANOMALY":48.6778,"EPHEMERIS_TYPE":0,"CLASSIFICATION_TYPE":"U","NORAD_CAT_ID":56953,"ELEMENT_SET_NO":999,"REV_AT_EPOCH":15236,"BSTAR":0.00038328234,"MEAN_MOTION_DOT":0.0001319,"MEAN_MOTION_DDOT":0},{"OBJECT_NAME":"STARLINK-36741","OBJECT_ID":"2026-026G","EPOCH":"2026-03-09T22:00:01.999584","MEAN_MOTION":15.49470613,"ECCENTRICITY":0.00013787,"INCLINATION":97.2845,"RA_OF_ASC_NODE":123.4131,"ARG_OF_PERICENTER":61.6159,"MEAN_ANOMALY":307.8195,"EPHEMERIS_TYPE":0,"CLASSIFICATION_TYPE":"U","NORAD_CAT_ID":67727,"ELEMENT_SET_NO":999,"REV_AT_EPOCH":535,"BSTAR":-0.038895218,"MEAN_MOTION_DOT":-0.01918764,"MEAN_MOTION_DDOT":0}]
